              M50 Cartesian                         J2K Cartesian  
    -----------------------------------       --------------------------------
     X    =      -14604667.12                 X    =        -4471102.23
     Y    =       -1406512.58  feet           Y    =         -478593.70  meter
     Z    =       16699100.35                 Z    =         5068213.99
     XDOT =      -4514.306666                 XDOT =       -1285.130024
     YDOT =     -24035.042767  feet/sec       YDOT =       -7340.760288  meter/sec
     ZDOT =      -5949.379665                 ZDOT =       -1819.833517
 
              TDR Cartesian                         TDR Cartesian  
    -----------------------------------       --------------------------------
     X    =        4313588.44                 X    =         1314781.76
     Y    =       14135147.10  feet           Y    =         4308392.84  meter
     Z    =       16604972.24                 Z    =         5061195.54
     XDOT =     -19479.578527                 XDOT =       -5937.375535
     YDOT =      12992.197993  feet/sec       YDOT =        3960.021948  meter/sec
     ZDOT =      -5976.131462                 ZDOT =       -1821.524869
  
  
    The mean element set is posted at the UTC for which position is
    just north of the next ascending node relative to the above
    vector time
 
 
    TWO LINE MEAN ELEMENT SET
  
    ISS
    1 25544U 98067A   16094.82495857  .00016717  00000-0  10270-3 0  9049
    2 25544  51.6425  68.9294 0002584  18.4151 341.7095 15.54373904 33413
  
  
    Satellite: ISS
    Catalog Number: 25544
    Epoch time:      16094.82495857   =   yrday.fracday
    Element set:     904
    Inclination:       51.6425  deg
    RA of node:        68.9294  deg
    Eccentricity:     .0002584     
    Arg of perigee:    18.4151  deg
    Mean anomaly:     341.7095  deg
    Mean motion:   15.54373904  rev/day
    Decay rate:    1.67170E-04  rev/day^2
    Epoch rev:            3341
    Checksum:              326
 
 
    Coasting Arc #6 (Orbit 3355)
    ---------------------------------------
 
    Vector Time (GMT): 2016/095/18:43:00.000
    Vector Time (MET): N/A
    Weight (LBS)     : 922235.5
 
              M50 Cartesian                         M50 Keplerian  
    -----------------------------------       --------------------------------
     X    =        4812178.65                 A    =         6780993.97  meter
     Y    =        2123146.02  meter          E    =           .0008653
     Z    =       -4287550.57                 I    =           51.96827
     XDOT =        226.578006                 Wp   =           92.72776
     YDOT =       6756.121997  meter/sec      RA   =           63.42058  deg
     ZDOT =       3605.718217                 TA   =          213.93552
                                              MA   =          213.99090
                                              Ha   =            221.195  n.mi
                                              Hp   =            214.036
 
              M50 Cartesian                         J2K Cartesian  
    -----------------------------------       --------------------------------
     X    =       15787987.70                 X    =         4808906.53
     Y    =        6965702.16  feet           Y    =         2176940.14  meter
     Z    =      -14066766.95                 Z    =        -4264182.44
     XDOT =        743.366160                 XDOT =         133.497499
     YDOT =      22165.754582  feet/sec       YDOT =        6758.135771  meter/sec
     ZDOT =      11829.784178                 ZDOT =        3606.591911
 
              TDR Cartesian                         TDR Cartesian  
    -----------------------------------       --------------------------------
     X    =          82215.95                 X    =           25059.42
     Y    =      -17338146.21  feet           Y    =        -5284666.96  meter
     Z    =      -13965579.88                 Z    =        -4256708.75
     XDOT =      18812.474737                 XDOT =        5734.042300
     YDOT =      -9425.935416  feet/sec       YDOT =       -2873.025115  meter/sec
     ZDOT =      11832.337091                 ZDOT =        3606.496345
  
  
    The mean element set is posted at the UTC for which position is
    just north of the next ascending node relative to the above
    vector time
 
 
    TWO LINE MEAN ELEMENT SET
  
    ISS
    1 25544U 98067A   16095.78935888  .00016717  00000-0  10270-3 0  9059
    2 25544  51.6423  64.1201 0002562  21.4599 338.6661 15.54355096 33565
  
  
    Satellite: ISS
    Catalog Number: 25544
    Epoch time:      16095.78935888   =   yrday.fracday
    Element set:     905
    Inclination:       51.6423  deg
    RA of node:        64.1201  deg
    Eccentricity:     .0002562     
    Arg of perigee:    21.4599  deg
    Mean anomaly:     338.6661  deg
    Mean motion:   15.54355096  rev/day
    Decay rate:    1.67170E-04  rev/day^2
    Epoch rev:            3356
    Checksum:              328
 
 
    Coasting Arc #7 (Orbit 3371)
    ---------------------------------------
 
    Vector Time (GMT): 2016/096/18:43:00.000
    Vector Time (MET): N/A
    Weight (LBS)     : 922235.5
 
              M50 Cartesian                         M50 Keplerian  
    -----------------------------------       --------------------------------
     X    =       -4927741.70                 A    =         6784901.70  meter
     Y    =       -3586362.63  meter          E    =           .0014189
     Z    =        2970398.47                 I    =           51.96745
     XDOT =       1108.244980                 Wp   =           86.99697
     YDOT =      -5695.474895  meter/sec      RA   =           58.45654  deg
     ZDOT =      -5016.684476                 TA   =           59.20811
                                              MA   =           59.06851
                                              Ha   =            221.212  n.mi
                                              Hp   =            213.853
 
              M50 Cartesian                         J2K Cartesian  
    -----------------------------------       --------------------------------
     X    =      -16167131.56                 X    =        -4901700.83
     Y    =      -11766281.59  feet           Y    =        -3641321.89  meter
     Z    =        9745401.79                 Z    =         2946524.40
     XDOT =       3635.974343                 XDOT =        1196.219820
     YDOT =     -18685.941257  feet/sec       YDOT =       -5682.590573  meter/sec
     ZDOT =     -16458.938568                 ZDOT =       -5011.086396
 
              TDR Cartesian                         TDR Cartesian  
    -----------------------------------       --------------------------------
     X    =       -4011098.03                 X    =        -1222582.68
     Y    =       19640051.88  feet           Y    =         5986287.81  meter
     Z    =        9642294.14                 Z    =         2938971.25
     XDOT =     -17132.086827                 XDOT =       -5221.860065
     YDOT =       4603.879181  feet/sec       YDOT =        1403.262374  meter/sec
     ZDOT =     -16433.548041                 ZDOT =       -5008.945443
  
  
    The mean element set is posted at the UTC for which position is
    just north of the next ascending node relative to the above
    vector time
 
 
    TWO LINE MEAN ELEMENT SET
  
    ISS
    1 25544U 98067A   16096.81804322  .00016717  00000-0  10270-3 0  9063
    2 25544  51.6432  58.9899 0002719  23.2120 336.9155 15.54392041 33721
  
  
    Satellite: ISS
    Catalog Number: 25544
    Epoch time:      16096.81804322   =   yrday.fracday
    Element set:     906
    Inclination:       51.6432  deg
    RA of node:        58.9899  deg
    Eccentricity:     .0002719     
    Arg of perigee:    23.2120  deg
    Mean anomaly:     336.9155  deg
    Mean motion:   15.54392041  rev/day
    Decay rate:    1.67170E-04  rev/day^2
    Epoch rev:            3372
    Checksum:              308
 
 
    Coasting Arc #8 (Orbit 3386)
    ---------------------------------------
 
    Vector Time (GMT): 2016/097/18:43:00.000
    Vector Time (MET): N/A
    Weight (LBS)     : 922235.5
 
              M50 Cartesian                         M50 Keplerian  
    -----------------------------------       --------------------------------
     X    =        4752613.13                 A    =         6787936.92  meter
     Y    =        4647372.28  meter          E    =           .0011470
     Z    =       -1349879.38                 I    =           51.95827
     XDOT =      -2527.658376                 Wp   =           34.99071
     YDOT =       4272.843944  meter/sec      RA   =           53.50147  deg
     ZDOT =       5844.918672                 TA   =          310.37229
                                              MA   =          310.47237
                                              Ha   =            221.302  n.mi
                                              Hp   =            213.842
 
              M50 Cartesian                         J2K Cartesian  
    -----------------------------------       --------------------------------
     X    =       15592562.77                 X    =         4706849.02
     Y    =       15247284.40  feet           Y    =         4700263.09  meter
     Z    =       -4428738.14                 Z    =        -1326903.99
     XDOT =      -8292.842440                 XDOT =       -2603.642865
     YDOT =      14018.516876  feet/sec       YDOT =        4244.153954  meter/sec
     ZDOT =      19176.242361                 ZDOT =        5832.454677
 
